ATLAS CENTAUR 2         
1 00694U 63047A   26069.74934869  .00001913  00000+0  22400-3 0  9996
2 00694  30.3513 189.7199 0547714  89.6263 276.7050 14.12071181131774
THOR AGENA D R/B        
1 00733U 64002A   26069.63853531  .00000277  00000+0  11600-3 0  9998
2 00733  99.1225  83.0277 0031976 255.2693 104.4946 14.34020730238430
SL-3 R/B                
1 00877U 64053B   26069.85528372  .00000303  00000+0  82816-4 0  9997
2 00877  65.0786 327.8204 0079825 291.8554  67.4070 14.61369366266965
SL-8 R/B                
1 02802U 67045B   26069.82066350  .00000456  00000+0  13353-3 0  9999
2 02802  74.0141 345.9773 0064320 351.9683   8.0438 14.45623976 89185
SL-8 R/B                
1 03230U 68040B   26069.77448734  .00002970  00000+0  22088-3 0  9993
2 03230  74.0318 311.4781 0023864 134.8446 225.4687 15.03267357 90171
OAO 2                   
1 03597U 68110A   26069.81788659  .00000324  00000+0  92266-4 0  9992
2 03597  34.9926 258.9245 0005977 213.2468 146.7848 14.47308794 19261
ISIS 1                  
1 03669U 69009A   26069.78195902  .00000188  00000+0  11704-3 0  9994
2 03669  88.4540 155.1896 1707820  86.9585 292.4601 11.30414745348656
SERT 2                  
1 04327U 70009A   26069.79639655  .00000021  00000+0  85340-4 0  9991
2 04327  99.2757  12.8294 0005079 153.1422 235.3998 13.58730002780049
SL-3 R/B                
1 05118U 71028B   26069.81000110  .00048696  00000+0  57014-3 0  9999
2 05118  81.2358  50.6454 0013313 280.3939  79.5813 15.61230491988845
ASTEX 1                 
1 05560U 71089A   26069.78792315  .00000588  00000+0  14954-3 0  9992
2 05560  92.7120 152.1149 0017806  82.6675 277.6554 14.50771120862468
SL-8 R/B                
1 05730U 71119B   26069.70110664  .00013134  00000+0  68422-3 0  9998
2 05730  73.8872 173.8284 0548497 140.2499 224.0226 14.37888012655636
OAO 3 (COPERNICUS)      
1 06153U 72065A   26069.61908171  .00000456  00000+0  97861-4 0  9990
2 06153  35.0056 292.0214 0006529 175.0096 214.5513 14.59999050846332
ATLAS CENTAUR R/B       
1 06155U 72065B   26069.70699951  .00001538  00000+0  21265-3 0  9991
2 06155  35.0016 299.7926 0033416  17.4108 342.7732 14.77689947841414
SL-8 R/B                
1 08459U 75112B   26069.82471050  .00000319  00000+0  11335-3 0  9990
2 08459  74.0630  16.8239 0014414 109.6444 250.6267 14.38204508632036
SL-3 R/B                
1 10114U 77057B   26069.81966509  .00015923  00000+0  33319-3 0  9991
2 10114  97.5778 241.7899 0006180 280.5264  79.5288 15.45530140668506
SEASAT 1                
1 10967U 78064A   26069.81038785  .00000305  00000+0  12378-3 0  9992
2 10967 108.0106 127.8515 0002326 285.4764  74.6124 14.46161358506676
SL-14 R/B               
1 11267U 79011B   26069.58653505  .00000697  00000+0  66205-4 0  9999
2 11267  82.5208  95.7197 0017365  57.7831 302.5069 14.91909316528918
