[{"OBJECT_NAME":"ATLAS CENTAUR 2","OBJECT_ID":"1963-047A","EPOCH":"2026-03-10T17:59:03.726816","MEAN_MOTION":14.12071181,"ECCENTRICITY":0.0547714,"INCLINATION":30.3513,"RA_OF_ASC_NODE":189.7199,"ARG_OF_PERICENTER":89.6263,"MEAN_ANOMALY":276.705,"EPHEMERIS_TYPE":0,"CLASSIFICATION_TYPE":"U","NORAD_CAT_ID":694,"ELEMENT_SET_NO":999,"REV_AT_EPOCH":13177,"BSTAR":0.000224,"MEAN_MOTION_DOT":1.913e-5,"MEAN_MOTION_DDOT":0},{"OBJECT_NAME":"THOR AGENA D R/B","OBJECT_ID":"1964-002A","EPOCH":"2026-03-10T15:19:29.450784","MEAN_MOTION":14.3402073,"ECCENTRICITY":0.0031976,"INCLINATION":99.1225,"RA_OF_ASC_NODE":83.0277,"ARG_OF_PERICENTER":255.2693,"MEAN_ANOMALY":104.4946,"EPHEMERIS_TYPE":0,"CLASSIFICATION_TYPE":"U","NORAD_CAT_ID":733,"ELEMENT_SET_NO":999,"REV_AT_EPOCH":23843,"BSTAR":0.000116,"MEAN_MOTION_DOT":2.77e-6,"MEAN_MOTION_DDOT":0},{"OBJECT_NAME":"SL-3 R/B","OBJECT_ID":"1964-053B","EPOCH":"2026-03-10T20:31:36.513408","MEAN_MOTION":14.61369366,"ECCENTRICITY":0.0079825,"INCLINATION":65.0786,"RA_OF_ASC_NODE":327.8204,"ARG_OF_PERICENTER":291.8554,"MEAN_ANOMALY":67.407,"EPHEMERIS_TYPE":0,"CLASSIFICATION_TYPE":"U","NORAD_CAT_ID":877,"ELEMENT_SET_NO":999,"REV_AT_EPOCH":26696,"BSTAR":8.2816e-5,"MEAN_MOTION_DOT":3.03e-6,"MEAN_MOTION_DDOT":0},{"OBJECT_NAME":"SL-8 R/B","OBJECT_ID":"1967-045B","EPOCH":"2026-03-10T19:41:45.326400","MEAN_MOTION":14.45623976,"ECCENTRICITY":0.006432,"INCLINATION":74.0141,"RA_OF_ASC_NODE":345.9773,"ARG_OF_PERICENTER":351.9683,"MEAN_ANOMALY":8.0438,"EPHEMERIS_TYPE":0,"CLASSIFICATION_TYPE":"U","NORAD_CAT_ID":2802,"ELEMENT_SET_NO":999,"REV_AT_EPOCH":8918,"BSTAR":0.00013353,"MEAN_MOTION_DOT":4.56e-6,"MEAN_MOTION_DDOT":0},{"OBJECT_NAME":"SL-8 R/B","OBJECT_ID":"1968-040B","EPOCH":"2026-03-10T18:35:15.706176","MEAN_MOTION":15.03267357,"ECCENTRICITY":0.0023864,"INCLINATION":74.0318,"RA_OF_ASC_NODE":311.4781,"ARG_OF_PERICENTER":134.8446,"MEAN_ANOMALY":225.4687,"EPHEMERIS_TYPE":0,"CLASSIFICATION_TYPE":"U","NORAD_CAT_ID":3230,"ELEMENT_SET_NO":999,"REV_AT_EPOCH":9017,"BSTAR":0.00022088,"MEAN_MOTION_DOT":2.97e-5,"MEAN_MOTION_DDOT":0},{"OBJECT_NAME":"OAO 2","OBJECT_ID":"1968-110A","EPOCH":"2026-03-10T19:37:45.401376","MEAN_MOTION":14.47308794,"ECCENTRICITY":0.0005977,"INCLINATION":34.9926,"RA_OF_ASC_NODE":258.9245,"ARG_OF_PERICENTER":213.2468,"MEAN_ANOMALY":146.7848,"EPHEMERIS_TYPE":0,"CLASSIFICATION_TYPE":"U","NORAD_CAT_ID":3597,"ELEMENT_SET_NO":999,"REV_AT_EPOCH":1926,"BSTAR":9.2266e-5,"MEAN_MOTION_DOT":3.24e-6,"MEAN_MOTION_DDOT":0},{"OBJECT_NAME":"ISIS 1","OBJECT_ID":"1969-009A","EPOCH":"2026-03-10T18:46:01.259328","MEAN_MOTION":11.30414745,"ECCENTRICITY":0.170782,"INCLINATION":88.454,"RA_OF_ASC_NODE":155.1896,"ARG_OF_PERICENTER":86.9585,"MEAN_ANOMALY":292.4601,"EPHEMERIS_TYPE":0,"CLASSIFICATION_TYPE":"U","NORAD_CAT_ID":3669,"ELEMENT_SET_NO":999,"REV_AT_EPOCH":34865,"BSTAR":0.00011704,"MEAN_MOTION_DOT":1.88e-6,"MEAN_MOTION_DDOT":0},{"OBJECT_NAME":"SERT 2","OBJECT_ID":"1970-009A","EPOCH":"2026-03-10T19:06:48.661920","MEAN_MOTION":13.58730002,"ECCENTRICITY":0.0005079,"INCLINATION":99.2757,"RA_OF_ASC_NODE":12.8294,"ARG_OF_PERICENTER":153.1422,"MEAN_ANOMALY":235.3998,"EPHEMERIS_TYPE":0,"CLASSIFICATION_TYPE":"U","NORAD_CAT_ID":4327,"ELEMENT_SET_NO":999,"REV_AT_EPOCH":78004,"BSTAR":8.534e-5,"MEAN_MOTION_DOT":2.1e-7,"MEAN_MOTION_DDOT":0},{"OBJECT_NAME":"SL-3 R/B","OBJECT_ID":"1971-028B","EPOCH":"2026-03-10T19:26:24.095040","MEAN_MOTION":15.61230491,"ECCENTRICITY":0.0013313,"INCLINATION":81.2358,"RA_OF_ASC_NODE":50.6454,"ARG_OF_PERICENTER":280.3939,"MEAN_ANOMALY":79.5813,"EPHEMERIS_TYPE":0,"CLASSIFICATION_TYPE":"U","NORAD_CAT_ID":5118,"ELEMENT_SET_NO":999,"REV_AT_EPOCH":98884,"BSTAR":0.00057014,"MEAN_MOTION_DOT":0.00048696,"MEAN_MOTION_DDOT":0},{"OBJECT_NAME":"ASTEX 1","OBJECT_ID":"1971-089A","EPOCH":"2026-03-10T18:54:36.560160","MEAN_MOTION":14.5077112,"ECCENTRICITY":0.0017806,"INCLINATION":92.712,"RA_OF_ASC_NODE":152.1149,"ARG_OF_PERICENTER":82.6675,"MEAN_ANOMALY":277.6554,"EPHEMERIS_TYPE":0,"CLASSIFICATION_TYPE":"U","NORAD_CAT_ID":5560,"ELEMENT_SET_NO":999,"REV_AT_EPOCH":86246,"BSTAR":0.00014954,"MEAN_MOTION_DOT":5.88e-6,"MEAN_MOTION_DDOT":0},{"OBJECT_NAME":"SL-8 R/B","OBJECT_ID":"1971-119B","EPOCH":"2026-03-10T16:49:35.613696","MEAN_MOTION":14.37888012,"ECCENTRICITY":0.0548497,"INCLINATION":73.8872,"RA_OF_ASC_NODE":173.8284,"ARG_OF_PERICENTER":140.2499,"MEAN_ANOMALY":224.0226,"EPHEMERIS_TYPE":0,"CLASSIFICATION_TYPE":"U","NORAD_CAT_ID":5730,"ELEMENT_SET_NO":999,"REV_AT_EPOCH":65563,"BSTAR":0.00068422,"MEAN_MOTION_DOT":0.00013134,"MEAN_MOTION_DDOT":0},{"OBJECT_NAME":"OAO 3 (COPERNICUS)","OBJECT_ID":"1972-065A","EPOCH":"2026-03-10T14:51:28.659744","MEAN_MOTION":14.5999905,"ECCENTRICITY":0.0006529,"INCLINATION":35.0056,"RA_OF_ASC_NODE":292.0214,"ARG_OF_PERICENTER":175.0096,"MEAN_ANOMALY":214.5513,"EPHEMERIS_TYPE":0,"CLASSIFICATION_TYPE":"U","NORAD_CAT_ID":6153,"ELEMENT_SET_NO":999,"REV_AT_EPOCH":84633,"BSTAR":9.7861e-5,"MEAN_MOTION_DOT":4.56e-6,"MEAN_MOTION_DDOT":0},{"OBJECT_NAME":"ATLAS CENTAUR R/B","OBJECT_ID":"1972-065B","EPOCH":"2026-03-10T16:58:04.757664","MEAN_MOTION":14.77689947,"ECCENTRICITY":0.0033416,"INCLINATION":35.0016,"RA_OF_ASC_NODE":299.7926,"ARG_OF_PERICENTER":17.4108,"MEAN_ANOMALY":342.7732,"EPHEMERIS_TYPE":0,"CLASSIFICATION_TYPE":"U","NORAD_CAT_ID":6155,"ELEMENT_SET_NO":999,"REV_AT_EPOCH":84141,"BSTAR":0.00021265,"MEAN_MOTION_DOT":1.538e-5,"MEAN_MOTION_DDOT":0},{"OBJECT_NAME":"SL-8 R/B","OBJECT_ID":"1975-112B","EPOCH":"2026-03-10T19:47:34.987200","MEAN_MOTION":14.38204508,"ECCENTRICITY":0.0014414,"INCLINATION":74.063,"RA_OF_ASC_NODE":16.8239,"ARG_OF_PERICENTER":109.6444,"MEAN_ANOMALY":250.6267,"EPHEMERIS_TYPE":0,"CLASSIFICATION_TYPE":"U","NORAD_CAT_ID":8459,"ELEMENT_SET_NO":999,"REV_AT_EPOCH":63203,"BSTAR":0.00011335,"MEAN_MOTION_DOT":3.19e-6,"MEAN_MOTION_DDOT":0},{"OBJECT_NAME":"SL-3 R/B","OBJECT_ID":"1977-057B","EPOCH":"2026-03-10T19:40:19.063776","MEAN_MOTION":15.4553014,"ECCENTRICITY":0.000618,"INCLINATION":97.5778,"RA_OF_ASC_NODE":241.7899,"ARG_OF_PERICENTER":280.5264,"MEAN_ANOMALY":79.5288,"EPHEMERIS_TYPE":0,"CLASSIFICATION_TYPE":"U","NORAD_CAT_ID":10114,"ELEMENT_SET_NO":999,"REV_AT_EPOCH":66850,"BSTAR":0.00033319,"MEAN_MOTION_DOT":0.00015923,"MEAN_MOTION_DDOT":0},{"OBJECT_NAME":"SEASAT 1","OBJECT_ID":"1978-064A","EPOCH":"2026-03-10T19:26:57.510240","MEAN_MOTION":14.46161358,"ECCENTRICITY":0.0002326,"INCLINATION":108.0106,"RA_OF_ASC_NODE":127.8515,"ARG_OF_PERICENTER":285.4764,"MEAN_ANOMALY":74.6124,"EPHEMERIS_TYPE":0,"CLASSIFICATION_TYPE":"U","NORAD_CAT_ID":10967,"ELEMENT_SET_NO":999,"REV_AT_EPOCH":50667,"BSTAR":0.00012378,"MEAN_MOTION_DOT":3.05e-6,"MEAN_MOTION_DDOT":0},{"OBJECT_NAME":"SL-14 R/B","OBJECT_ID":"1979-011B","EPOCH":"2026-03-10T14:04:36.628320","MEAN_MOTION":14.91909316,"ECCENTRICITY":0.0017365,"INCLINATION":82.5208,"RA_OF_ASC_NODE":95.7197,"ARG_OF_PERICENTER":57.7831,"MEAN_ANOMALY":302.5069,"EPHEMERIS_TYPE":0,"CLASSIFICATION_TYPE":"U","NORAD_CAT_ID":11267,"ELEMENT_SET_NO":999,"REV_AT_EPOCH":52891,"BSTAR":6.6205e-5,"MEAN_MOTION_DOT":6.97e-6,"MEAN_MOTION_DDOT":0}]
